[{"OBJECT_NAME":"ICEYE-X26","OBJECT_ID":"2023-084AF","EPOCH":"2026-03-09T22:36:43.632288","MEAN_MOTION":15.73279775,"ECCENTRICITY":9.181e-5,"INCLINATION":97.5771,"RA_OF_ASC_NODE":224.5701,"ARG_OF_PERICENTER":250.447,"MEAN_ANOMALY":109.6694,"EPHEMERIS_TYPE":0,"CLASSIFICATION_TYPE":"U","NORAD_CAT_ID":56961,"ELEMENT_SET_NO":999,"REV_AT_EPOCH":15354,"BSTAR":0.00052391916,"MEAN_MOTION_DOT":0.00072488,"MEAN_MOTION_DDOT":0},{"OBJECT_NAME":"STARLINK-11625 [DTC]","OBJECT_ID":"2025-039F","EPOCH":"2026-03-08T22:19:48.612000","MEAN_MOTION":15.70919339,"ECCENTRICITY":0.00028885,"INCLINATION":42.9994,"RA_OF_ASC_NODE":241.6366,"ARG_OF_PERICENTER":245.5388,"MEAN_ANOMALY":114.5179,"EPHEMERIS_TYPE":0,"CLASSIFICATION_TYPE":"U","NORAD_CAT_ID":63109,"ELEMENT_SET_NO":999,"REV_AT_EPOCH":5949,"BSTAR":0.0020583505,"MEAN_MOTION_DOT":0.00273465,"MEAN_MOTION_DDOT":0}]
